GOES 1 (SMS-C)          
1 08366U 75100A   26074.25741799  .00000016  00000+0  00000+0 0  9994
2 08366   4.8468 278.6220 0005240   1.3982 223.5511  1.00239760184129
GOES 2                  
1 10061U 77048A   26074.08391059 -.00000001  00000+0  00000+0 0  9998
2 10061   6.6438 294.1387 0013926  48.8569 301.8015  0.99393280 45338
GOES 3                  
1 10953U 78062A   26073.94966336 -.00000290  00000+0  00000+0 0  9995
2 10953   7.1158 299.9764 0002453 358.6480 339.8099  0.99362600127596
GOES 4                  
1 11964U 80074A   26074.19189771 -.00000037  00000+0  00000+0 0  9991
2 11964   8.1888 303.6570 0032345 103.3730 101.9517  0.99227830126502
GOES 5                  
1 12472U 81049A   26074.15139568 -.00000177  00000+0  00000+0 0  9999
2 12472   9.5268 316.2765 0004557 339.7941 200.1494  1.00209499121902
GOES 6                  
1 14050U 83041A   26074.25949800 -.00000052  00000+0  00000+0 0  9998
2 14050  10.3404 321.8335 0002169 311.0405 241.7965  1.00218545215076
GOES 7                  
1 17561U 87022A   26072.32747086  .00000108  00000+0  00000+0 0  9990
2 17561  13.0128 338.3128 0004091  16.4870 148.7526  0.99898080126008
GOES 8                  
1 23051U 94022A   26073.73433653 -.00000184  00000+0  00000+0 0  9992
2 23051  14.3498  14.3931 0005364  16.8667 162.6449  0.98905319123197
GOES 9                  
1 23581U 95025A   26073.47061502  .00000020  00000+0  00000+0 0  9993
2 23581  13.8792  15.2412 0003243 209.1903 343.4937  0.98798943111825
GOES 10                 
1 24786U 97019A   26073.43669094  .00000073  00000+0  00000+0 0  9990
2 24786  13.0154  21.7714 0030638 238.7904 123.1937  0.99122438105132
GOES 11                 
1 26352U 00022A   26074.04317708  .00000065  00000+0  00000+0 0  9990
2 26352  11.6034  47.3403 0005712 258.4372 119.2593  0.99040274 51542
GOES 12                 
1 26871U 01031A   26073.90468317  .00000015  00000+0  00000+0 0  9999
2 26871  12.0147  38.0549 0008789 298.5175  58.9073  0.99134722 89825
EWS-G1 (GOES 13)        
1 29155U 06018A   26074.24823129 -.00000116  00000+0  00000+0 0  9994
2 29155   4.2874  77.5612 0061913 273.8317 101.6887  0.98788813 42322
GOES 14                 
1 35491U 09033A   26074.24901128  .00000108  00000+0  00000+0 0  9990
2 35491   1.4456  84.2524 0001673 273.9126  99.5446  1.00103667  5653
EWS-G2 (GOES 15)        
1 36411U 10008A   26073.93761663  .00000021  00000+0  00000+0 0  9994
2 36411   1.0327  84.9029 0002495  17.6924 110.8883  1.00270266 58692
GOES 16                 
1 41866U 16071A   26074.26088466 -.00000092  00000+0  00000+0 0  9999
2 41866   0.1254  86.8652 0002168 230.0129 205.2111  1.00272428 34160
GOES 17                 
1 43226U 18022A   26074.20622310 -.00000183  00000+0  00000+0 0  9996
2 43226   0.6944  87.3034 0001631 233.7876 196.4486  1.00272306 29486
