[{"OBJECT_NAME":"GOES 1 (SMS-C)","OBJECT_ID":"1975-100A","EPOCH":"2026-03-15T06:10:40.914336","MEAN_MOTION":1.0023976,"ECCENTRICITY":0.00052404,"INCLINATION":4.8468,"RA_OF_ASC_NODE":278.622,"ARG_OF_PERICENTER":1.3982,"MEAN_ANOMALY":223.5511,"EPHEMERIS_TYPE":0,"CLASSIFICATION_TYPE":"U","NORAD_CAT_ID":8366,"ELEMENT_SET_NO":999,"REV_AT_EPOCH":18412,"BSTAR":0,"MEAN_MOTION_DOT":1.6e-7,"MEAN_MOTION_DDOT":0},{"OBJECT_NAME":"GOES 2","OBJECT_ID":"1977-048A","EPOCH":"2026-03-15T02:00:49.874976","MEAN_MOTION":0.9939328,"ECCENTRICITY":0.00139264,"INCLINATION":6.6438,"RA_OF_ASC_NODE":294.1387,"ARG_OF_PERICENTER":48.8569,"MEAN_ANOMALY":301.8015,"EPHEMERIS_TYPE":0,"CLASSIFICATION_TYPE":"U","NORAD_CAT_ID":10061,"ELEMENT_SET_NO":999,"REV_AT_EPOCH":4533,"BSTAR":0,"MEAN_MOTION_DOT":-1.0e-8,"MEAN_MOTION_DDOT":0},{"OBJECT_NAME":"GOES 3","OBJECT_ID":"1978-062A","EPOCH":"2026-03-14T22:47:30.914304","MEAN_MOTION":0.993626,"ECCENTRICITY":0.00024533,"INCLINATION":7.1158,"RA_OF_ASC_NODE":299.9764,"ARG_OF_PERICENTER":358.648,"MEAN_ANOMALY":339.8099,"EPHEMERIS_TYPE":0,"CLASSIFICATION_TYPE":"U","NORAD_CAT_ID":10953,"ELEMENT_SET_NO":999,"REV_AT_EPOCH":12759,"BSTAR":0,"MEAN_MOTION_DOT":-2.9e-6,"MEAN_MOTION_DDOT":0},{"OBJECT_NAME":"GOES 4","OBJECT_ID":"1980-074A","EPOCH":"2026-03-15T04:36:19.962144","MEAN_MOTION":0.9922783,"ECCENTRICITY":0.00323453,"INCLINATION":8.1888,"RA_OF_ASC_NODE":303.657,"ARG_OF_PERICENTER":103.373,"MEAN_ANOMALY":101.9517,"EPHEMERIS_TYPE":0,"CLASSIFICATION_TYPE":"U","NORAD_CAT_ID":11964,"ELEMENT_SET_NO":999,"REV_AT_EPOCH":12650,"BSTAR":0,"MEAN_MOTION_DOT":-3.7e-7,"MEAN_MOTION_DDOT":0},{"OBJECT_NAME":"GOES 5","OBJECT_ID":"1981-049A","EPOCH":"2026-03-15T03:38:00.586752","MEAN_MOTION":1.00209499,"ECCENTRICITY":0.00045573,"INCLINATION":9.5268,"RA_OF_ASC_NODE":316.2765,"ARG_OF_PERICENTER":339.7941,"MEAN_ANOMALY":200.1494,"EPHEMERIS_TYPE":0,"CLASSIFICATION_TYPE":"U","NORAD_CAT_ID":12472,"ELEMENT_SET_NO":999,"REV_AT_EPOCH":12190,"BSTAR":0,"MEAN_MOTION_DOT":-1.77e-6,"MEAN_MOTION_DDOT":0},{"OBJECT_NAME":"GOES 6","OBJECT_ID":"1983-041A","EPOCH":"2026-03-15T06:13:40.627200","MEAN_MOTION":1.00218545,"ECCENTRICITY":0.00021695,"INCLINATION":10.3404,"RA_OF_ASC_NODE":321.8335,"ARG_OF_PERICENTER":311.0405,"MEAN_ANOMALY":241.7965,"EPHEMERIS_TYPE":0,"CLASSIFICATION_TYPE":"U","NORAD_CAT_ID":14050,"ELEMENT_SET_NO":999,"REV_AT_EPOCH":21507,"BSTAR":0,"MEAN_MOTION_DOT":-5.2e-7,"MEAN_MOTION_DDOT":0},{"OBJECT_NAME":"GOES 7","OBJECT_ID":"1987-022A","EPOCH":"2026-03-13T07:51:33.482304","MEAN_MOTION":0.9989808,"ECCENTRICITY":0.00040914,"INCLINATION":13.0128,"RA_OF_ASC_NODE":338.3128,"ARG_OF_PERICENTER":16.487,"MEAN_ANOMALY":148.7526,"EPHEMERIS_TYPE":0,"CLASSIFICATION_TYPE":"U","NORAD_CAT_ID":17561,"ELEMENT_SET_NO":999,"REV_AT_EPOCH":12600,"BSTAR":0,"MEAN_MOTION_DOT":1.08e-6,"MEAN_MOTION_DDOT":0},{"OBJECT_NAME":"GOES 8","OBJECT_ID":"1994-022A","EPOCH":"2026-03-14T17:37:26.676192","MEAN_MOTION":0.98905319,"ECCENTRICITY":0.00053644,"INCLINATION":14.3498,"RA_OF_ASC_NODE":14.3931,"ARG_OF_PERICENTER":16.8667,"MEAN_ANOMALY":162.6449,"EPHEMERIS_TYPE":0,"CLASSIFICATION_TYPE":"U","NORAD_CAT_ID":23051,"ELEMENT_SET_NO":999,"REV_AT_EPOCH":12319,"BSTAR":0,"MEAN_MOTION_DOT":-1.84e-6,"MEAN_MOTION_DDOT":0},{"OBJECT_NAME":"GOES 9","OBJECT_ID":"1995-025A","EPOCH":"2026-03-14T11:17:41.137728","MEAN_MOTION":0.98798943,"ECCENTRICITY":0.0003243,"INCLINATION":13.8792,"RA_OF_ASC_NODE":15.2412,"ARG_OF_PERICENTER":209.1903,"MEAN_ANOMALY":343.4937,"EPHEMERIS_TYPE":0,"CLASSIFICATION_TYPE":"U","NORAD_CAT_ID":23581,"ELEMENT_SET_NO":999,"REV_AT_EPOCH":11182,"BSTAR":0,"MEAN_MOTION_DOT":2.0e-7,"MEAN_MOTION_DDOT":0},{"OBJECT_NAME":"GOES 10","OBJECT_ID":"1997-019A","EPOCH":"2026-03-14T10:28:50.097216","MEAN_MOTION":0.99122438,"ECCENTRICITY":0.00306381,"INCLINATION":13.0154,"RA_OF_ASC_NODE":21.7714,"ARG_OF_PERICENTER":238.7904,"MEAN_ANOMALY":123.1937,"EPHEMERIS_TYPE":0,"CLASSIFICATION_TYPE":"U","NORAD_CAT_ID":24786,"ELEMENT_SET_NO":999,"REV_AT_EPOCH":10513,"BSTAR":0,"MEAN_MOTION_DOT":7.3e-7,"MEAN_MOTION_DDOT":0},{"OBJECT_NAME":"GOES 11","OBJECT_ID":"2000-022A","EPOCH":"2026-03-15T01:02:10.499712","MEAN_MOTION":0.99040274,"ECCENTRICITY":0.00057129,"INCLINATION":11.6034,"RA_OF_ASC_NODE":47.3403,"ARG_OF_PERICENTER":258.4372,"MEAN_ANOMALY":119.2593,"EPHEMERIS_TYPE":0,"CLASSIFICATION_TYPE":"U","NORAD_CAT_ID":26352,"ELEMENT_SET_NO":999,"REV_AT_EPOCH":5154,"BSTAR":0,"MEAN_MOTION_DOT":6.5e-7,"MEAN_MOTION_DDOT":0},{"OBJECT_NAME":"GOES 12","OBJECT_ID":"2001-031A","EPOCH":"2026-03-14T21:42:44.625888","MEAN_MOTION":0.99134722,"ECCENTRICITY":0.00087898,"INCLINATION":12.0147,"RA_OF_ASC_NODE":38.0549,"ARG_OF_PERICENTER":298.5175,"MEAN_ANOMALY":58.9073,"EPHEMERIS_TYPE":0,"CLASSIFICATION_TYPE":"U","NORAD_CAT_ID":26871,"ELEMENT_SET_NO":999,"REV_AT_EPOCH":8982,"BSTAR":0,"MEAN_MOTION_DOT":1.5e-7,"MEAN_MOTION_DDOT":0},{"OBJECT_NAME":"EWS-G1 (GOES 13)","OBJECT_ID":"2006-018A","EPOCH":"2026-03-15T05:57:27.183456","MEAN_MOTION":0.98788813,"ECCENTRICITY":0.0061913,"INCLINATION":4.2874,"RA_OF_ASC_NODE":77.5612,"ARG_OF_PERICENTER":273.8317,"MEAN_ANOMALY":101.6887,"EPHEMERIS_TYPE":0,"CLASSIFICATION_TYPE":"U","NORAD_CAT_ID":29155,"ELEMENT_SET_NO":999,"REV_AT_EPOCH":4232,"BSTAR":0,"MEAN_MOTION_DOT":-1.16e-6,"MEAN_MOTION_DDOT":0},{"OBJECT_NAME":"GOES 14","OBJECT_ID":"2009-033A","EPOCH":"2026-03-15T05:58:34.574592","MEAN_MOTION":1.00103667,"ECCENTRICITY":0.00016738,"INCLINATION":1.4456,"RA_OF_ASC_NODE":84.2524,"ARG_OF_PERICENTER":273.9126,"MEAN_ANOMALY":99.5446,"EPHEMERIS_TYPE":0,"CLASSIFICATION_TYPE":"U","NORAD_CAT_ID":35491,"ELEMENT_SET_NO":999,"REV_AT_EPOCH":565,"BSTAR":0,"MEAN_MOTION_DOT":1.08e-6,"MEAN_MOTION_DDOT":0},{"OBJECT_NAME":"EWS-G2 (GOES 15)","OBJECT_ID":"2010-008A","EPOCH":"2026-03-14T22:30:10.076832","MEAN_MOTION":1.00270266,"ECCENTRICITY":0.00024959,"INCLINATION":1.0327,"RA_OF_ASC_NODE":84.9029,"ARG_OF_PERICENTER":17.6924,"MEAN_ANOMALY":110.8883,"EPHEMERIS_TYPE":0,"CLASSIFICATION_TYPE":"U","NORAD_CAT_ID":36411,"ELEMENT_SET_NO":999,"REV_AT_EPOCH":5869,"BSTAR":0,"MEAN_MOTION_DOT":2.1e-7,"MEAN_MOTION_DDOT":0},{"OBJECT_NAME":"GOES 16","OBJECT_ID":"2016-071A","EPOCH":"2026-03-15T06:15:40.434624","MEAN_MOTION":1.00272428,"ECCENTRICITY":0.00021687,"INCLINATION":0.1254,"RA_OF_ASC_NODE":86.8652,"ARG_OF_PERICENTER":230.0129,"MEAN_ANOMALY":205.2111,"EPHEMERIS_TYPE":0,"CLASSIFICATION_TYPE":"U","NORAD_CAT_ID":41866,"ELEMENT_SET_NO":999,"REV_AT_EPOCH":3416,"BSTAR":0,"MEAN_MOTION_DOT":-9.2e-7,"MEAN_MOTION_DDOT":0},{"OBJECT_NAME":"GOES 17","OBJECT_ID":"2018-022A","EPOCH":"2026-03-15T04:56:57.675840","MEAN_MOTION":1.00272306,"ECCENTRICITY":0.00016317,"INCLINATION":0.6944,"RA_OF_ASC_NODE":87.3034,"ARG_OF_PERICENTER":233.7876,"MEAN_ANOMALY":196.4486,"EPHEMERIS_TYPE":0,"CLASSIFICATION_TYPE":"U","NORAD_CAT_ID":43226,"ELEMENT_SET_NO":999,"REV_AT_EPOCH":2948,"BSTAR":0,"MEAN_MOTION_DOT":-1.83e-6,"MEAN_MOTION_DDOT":0}]
